{
  "norad_id": 53986,
  "name": "STARLINK-5119",
  "history": [
    {
      "epoch": "2026-04-17T22:40:37.193952Z",
      "apogee_km": 540.7857354318512,
      "perigee_km": 538.7341639124579,
      "latitude_deg": 7.657477609155433e-05,
      "longitude_deg": -158.6481711880942,
      "height_km": 540.6651361474833,
      "semi_major_axis_km": 6917.896949672155,
      "eccentricity": 0.00014828,
      "inclination_deg": 53.2181,
      "raan_deg": 27.5777,
      "arg_perigee_deg": 90.5357,
      "mean_anomaly_deg": 269.5806,
      "mean_motion_rev_day": 15.08834582
    },
    {
      "epoch": "2026-04-18T20:56:00.823200Z",
      "apogee_km": 540.7666058832465,
      "perigee_km": 538.7230635892647,
      "latitude_deg": -3.120286770325664e-05,
      "longitude_deg": -137.57375105556113,
      "height_km": 540.6510283111421,
      "semi_major_axis_km": 6917.881834736255,
      "eccentricity": 0.0001477,
      "inclination_deg": 53.2182,
      "raan_deg": 23.4147,
      "arg_perigee_deg": 90.5922,
      "mean_anomaly_deg": 269.5239,
      "mean_motion_rev_day": 15.08839527
    },
    {
      "epoch": "2026-04-19T03:17:33.213408Z",
      "apogee_km": 540.7582626455278,
      "perigee_km": 538.7165211974971,
      "latitude_deg": -1.9762897235789207e-05,
      "longitude_deg": 125.59074333789574,
      "height_km": 540.6368210246625,
      "semi_major_axis_km": 6917.874391921512,
      "eccentricity": 0.00014757,
      "inclination_deg": 53.2182,
      "raan_deg": 22.2253,
      "arg_perigee_deg": 90.213,
      "mean_anomaly_deg": 269.9031,
      "mean_motion_rev_day": 15.08841962
    },
    {
      "epoch": "2026-04-20T11:05:16.591776Z",
      "apogee_km": 540.7741954572184,
      "perigee_km": 538.7342476937993,
      "latitude_deg": 1.6298542383824775e-05,
      "longitude_deg": 1.4071348670793868,
      "height_km": 540.5906890493245,
      "semi_major_axis_km": 6917.891221575508,
      "eccentricity": 0.00014744,
      "inclination_deg": 53.2185,
      "raan_deg": 16.2782,
      "arg_perigee_deg": 86.6728,
      "mean_anomaly_deg": 273.4433,
      "mean_motion_rev_day": 15.08836456
    },
    {
      "epoch": "2026-04-21T20:28:21.872352Z",
      "apogee_km": 540.7838956365449,
      "perigee_km": 538.685013437238,
      "latitude_deg": -5.1710644057322134e-05,
      "longitude_deg": -146.98028654406494,
      "height_km": 540.5658042997546,
      "semi_major_axis_km": 6917.871454536891,
      "eccentricity": 0.0001517,
      "inclination_deg": 53.2187,
      "raan_deg": 10.0339,
      "arg_perigee_deg": 86.4878,
      "mean_anomaly_deg": 273.6287,
      "mean_motion_rev_day": 15.08842923
    },
    {
      "epoch": "2026-04-22T02:49:54.123456Z",
      "apogee_km": 540.7855961823125,
      "perigee_km": 538.6655480184663,
      "latitude_deg": -5.266068342159349e-05,
      "longitude_deg": 116.18437932626551,
      "height_km": 540.589883751257,
      "semi_major_axis_km": 6917.862572100389,
      "eccentricity": 0.00015323,
      "inclination_deg": 53.2186,
      "raan_deg": 8.8441,
      "arg_perigee_deg": 88.3083,
      "mean_anomaly_deg": 271.8084,
      "mean_motion_rev_day": 15.08845829
    },
    {
      "epoch": "2026-04-23T02:40:42.147552Z",
      "apogee_km": 540.8302309196833,
      "perigee_km": 538.6849918007001,
      "latitude_deg": -4.06015135095503e-05,
      "longitude_deg": 113.0439374755877,
      "height_km": 540.7190537403388,
      "semi_major_axis_km": 6917.894611360191,
      "eccentricity": 0.00015505,
      "inclination_deg": 53.2188,
      "raan_deg": 4.3831,
      "arg_perigee_deg": 93.5195,
      "mean_anomaly_deg": 266.5974,
      "mean_motion_rev_day": 15.08835347
    },
    {
      "epoch": "2026-04-24T20:00:43.927200Z",
      "apogee_km": 540.8399368401188,
      "perigee_km": 538.6857028362201,
      "latitude_deg": 1.3768009519814412e-05,
      "longitude_deg": -156.3915596166202,
      "height_km": 540.7595206961785,
      "semi_major_axis_km": 6917.899819838169,
      "eccentricity": 0.0001557,
      "inclination_deg": 53.2205,
      "raan_deg": 356.6525,
      "arg_perigee_deg": 95.3771,
      "mean_anomaly_deg": 264.7399,
      "mean_motion_rev_day": 15.08833643
    },
    {
      "epoch": "2026-04-25T19:51:30.917952Z",
      "apogee_km": 540.8155037953666,
      "perigee_km": 538.6958614774076,
      "latitude_deg": 2.5646084565300137e-05,
      "longitude_deg": -159.52728206948592,
      "height_km": 540.6357673969004,
      "semi_major_axis_km": 6917.892682636387,
      "eccentricity": 0.0001532,
      "inclination_deg": 53.219,
      "raan_deg": 352.1919,
      "arg_perigee_deg": 89.1595,
      "mean_anomaly_deg": 270.9573,
      "mean_motion_rev_day": 15.08835978
    },
    {
      "epoch": "2026-04-26T22:53:04.382016Z",
      "apogee_km": 540.7691312498091,
      "perigee_km": 538.7271099199152,
      "latitude_deg": -1.4198271205657916e-05,
      "longitude_deg": 148.9181383965522,
      "height_km": 540.6107548869481,
      "semi_major_axis_km": 6917.885120584861,
      "eccentricity": 0.00014759,
      "inclination_deg": 53.2187,
      "raan_deg": 347.1367,
      "arg_perigee_deg": 88.1449,
      "mean_anomaly_deg": 271.9712,
      "mean_motion_rev_day": 15.08838452
    },
    {
      "epoch": "2026-04-27T21:08:28.514112Z",
      "apogee_km": 540.7455359380956,
      "perigee_km": 538.75041791075,
      "latitude_deg": 5.290114177849565e-05,
      "longitude_deg": 169.99048830660092,
      "height_km": 540.6228862050475,
      "semi_major_axis_km": 6917.8849769244225,
      "eccentricity": 0.0001442,
      "inclination_deg": 53.2184,
      "raan_deg": 342.9736,
      "arg_perigee_deg": 88.8063,
      "mean_anomaly_deg": 271.3095,
      "mean_motion_rev_day": 15.08838499
    },
    {
      "epoch": "2026-04-28T19:23:52.025856Z",
      "apogee_km": 540.7181273038159,
      "perigee_km": 538.7548348098908,
      "latitude_deg": 3.1475323843532997e-05,
      "longitude_deg": -168.93473580427,
      "height_km": 540.5910609021901,
      "semi_major_axis_km": 6917.873481056853,
      "eccentricity": 0.0001419,
      "inclination_deg": 53.2194,
      "raan_deg": 338.8104,
      "arg_perigee_deg": 87.5913,
      "mean_anomaly_deg": 272.5242,
      "mean_motion_rev_day": 15.0884226
    },
    {
      "epoch": "2026-04-29T20:50:02.205312Z",
      "apogee_km": 540.6510376332744,
      "perigee_km": 538.8150349256457,
      "latitude_deg": -1.5642825146795798e-05,
      "longitude_deg": 163.71918911033168,
      "height_km": 540.6159933177305,
      "semi_major_axis_km": 6917.87003627946,
      "eccentricity": 0.0001327,
      "inclination_deg": 53.2187,
      "raan_deg": 334.0514,
      "arg_perigee_deg": 89.1925,
      "mean_anomaly_deg": 270.9219,
      "mean_motion_rev_day": 15.08843387
    },
    {
      "epoch": "2026-04-30T00:00:48.447072Z",
      "apogee_km": 540.7481605998628,
      "perigee_km": 538.723022577401,
      "latitude_deg": 3.944801094630752e-05,
      "longitude_deg": 115.30097820114051,
      "height_km": 540.700194247759,
      "semi_major_axis_km": 6917.872591588632,
      "eccentricity": 0.00014637,
      "inclination_deg": 53.219,
      "raan_deg": 333.4564,
      "arg_perigee_deg": 93.9001,
      "mean_anomaly_deg": 266.2159,
      "mean_motion_rev_day": 15.08842551
    },
    {
      "epoch": "2026-05-02T06:03:55.564416Z",
      "apogee_km": 540.6668791552711,
      "perigee_km": 538.8447061936804,
      "latitude_deg": 5.766353963629363e-06,
      "longitude_deg": 12.192259365974092,
      "height_km": 540.6166957632712,
      "semi_major_axis_km": 6917.8927926744755,
      "eccentricity": 0.0001317,
      "inclination_deg": 53.2175,
      "raan_deg": 323.3472,
      "arg_perigee_deg": 87.8064,
      "mean_anomaly_deg": 272.3079,
      "mean_motion_rev_day": 15.08835942
    },
    {
      "epoch": "2026-05-03T20:13:11.085024Z",
      "apogee_km": 540.6510694471854,
      "perigee_km": 538.8551851701359,
      "latitude_deg": 1.8377545681062657e-05,
      "longitude_deg": 151.17425345736413,
      "height_km": 540.617908506689,
      "semi_major_axis_km": 6917.89012730866,
      "eccentricity": 0.0001298,
      "inclination_deg": 53.2173,
      "raan_deg": 316.2108,
      "arg_perigee_deg": 88.0217,
      "mean_anomaly_deg": 272.0924,
      "mean_motion_rev_day": 15.08836814
    },
    {
      "epoch": "2026-05-04T18:28:35.156640Z",
      "apogee_km": 540.6350295698448,
      "perigee_km": 538.8668174165996,
      "latitude_deg": -4.210754573765076e-05,
      "longitude_deg": 172.24705722245022,
      "height_km": 540.6236771433599,
      "semi_major_axis_km": 6917.887923493222,
      "eccentricity": 0.0001278,
      "inclination_deg": 53.2174,
      "raan_deg": 312.048,
      "arg_perigee_deg": 88.5046,
      "mean_anomaly_deg": 271.6092,
      "mean_motion_rev_day": 15.08837535
    },
    {
      "epoch": "2026-05-05T18:19:21.836352Z",
      "apogee_km": 540.6577335882412,
      "perigee_km": 538.8106619784321,
      "latitude_deg": -4.403507217787225e-06,
      "longitude_deg": 169.11404995156542,
      "height_km": 540.6019443000129,
      "semi_major_axis_km": 6917.871197783336,
      "eccentricity": 0.0001335,
      "inclination_deg": 53.219,
      "raan_deg": 307.5888,
      "arg_perigee_deg": 88.2522,
      "mean_anomaly_deg": 271.8623,
      "mean_motion_rev_day": 15.08843007
    },
    {
      "epoch": "2026-05-06T18:10:09.543360Z",
      "apogee_km": 540.6284529191335,
      "perigee_km": 538.8851436819614,
      "latitude_deg": -2.180438171907004e-05,
      "longitude_deg": 165.9754095556075,
      "height_km": 540.3813951237356,
      "semi_major_axis_km": 6917.893798300547,
      "eccentricity": 0.000126,
      "inclination_deg": 53.2173,
      "raan_deg": 303.1283,
      "arg_perigee_deg": 71.8636,
      "mean_anomaly_deg": 288.2493,
      "mean_motion_rev_day": 15.08835613
    }
  ]
}